COMMENT,ORIGINATOR,NORAD_CAT_ID,OBJECT_NAME,OBJECT_TYPE,CLASSIFICATION_TYPE,INTLDES,EPOCH,EPOCH_MICROSECONDS,MEAN_MOTION,ECCENTRICITY,INCLINATION,RA_OF_ASC_NODE,ARG_OF_PERICENTER,MEAN_ANOMALY,EPHEMERIS_TYPE,ELEMENT_SET_NO,REV_AT_EPOCH,BSTAR,MEAN_MOTION_DOT,MEAN_MOTION_DDOT,FILE,TLE_LINE0,TLE_LINE1,TLE_LINE2,OBJECT_ID,OBJECT_NUMBER,SEMIMAJOR_AXIS,PERIOD,APOGEE,PERIGEE,DECAYED,date
GENERATED VIA SPACETRACK.ORG API,18 SPCS,52183,SPACEBEE-133,PAYLOAD,U,22033AC,2023/4/19 16:51,509024,15.41110309,0.0004519,97.3497,192.9939,17.2561,342.8838,0,999,5845,0.0020242,0.00084521,0,3890520,0 SPACEBEE-133,1 52183U 22033AC  23109.70258691  .00084521  00000-0  20242-2 0  9994,2 52183  97.3497 192.9939 0004519  17.2561 342.8838 15.41110309 58456,2022-033AC,52183,6820.968,93.439,445.916,439.751,1,
GENERATED VIA SPACETRACK.ORG API,18 SPCS,52183,SPACEBEE-133,PAYLOAD,U,22033AC,2023/4/20 5:19,329280,15.41188288,0.000438,97.3495,193.516,15.2787,344.8591,0,999,5853,0.001482,0.00061836,0,3890827,0 SPACEBEE-133,1 52183U 22033AC  23110.22201770  .00061836  00000-0  14820-2 0  9998,2 52183  97.3495 193.5160 0004380  15.2787 344.8591 15.41188288 58539,2022-033AC,52183,6820.738,93.434,445.591,439.616,1,
GENERATED VIA SPACETRACK.ORG API,18 SPCS,52183,SPACEBEE-133,PAYLOAD,U,22033AC,2023/4/20 5:19,329280,15.41188288,0.000438,97.3495,193.516,15.2787,344.8591,0,999,5852,0.001482,0.00061836,0,3891029,0 SPACEBEE-133,1 52183U 22033AC  23110.22201770  .00061836  00000-0  14820-2 0  9998,2 52183  97.3495 193.5160 0004380  15.2787 344.8591 15.41188288 58528,2022-033AC,52183,6820.738,93.434,445.591,439.616,1,
GENERATED VIA SPACETRACK.ORG API,18 SPCS,52183,SPACEBEE-133,PAYLOAD,U,22033AC,2023/4/20 19:21,660736,15.41258136,0.000442,97.3492,194.1041,11.787,348.3479,0,999,5862,0.0014973,0.00062626,0,3891109,0 SPACEBEE-133,1 52183U 22033AC  23110.80635024  .00062626  00000-0  14973-2 0  9992,2 52183  97.3492 194.1041 0004420  11.7870 348.3479 15.41258136 58624,2022-033AC,52183,6820.532,93.43,445.412,439.382,1,
GENERATED VIA SPACETRACK.ORG API,18 SPCS,52183,SPACEBEE-133,PAYLOAD,U,22033AC,2023/4/21 10:56,777632,15.41337227,0.0004334,97.3494,194.7575,8.377,351.7548,0,999,5871,0.001517,0.00063625,0,3891484,0 SPACEBEE-133,1 52183U 22033AC  23111.45557613  .00063625  00000-0  15170-2 0  9991,2 52183  97.3494 194.7575 0004334   8.3770 351.7548 15.41337227 58713,2022-033AC,52183,6820.299,93.425,445.12,439.208,1,
GENERATED VIA SPACETRACK.ORG API,18 SPCS,52183,SPACEBEE-133,PAYLOAD,U,22033AC,2023/4/21 10:56,777632,15.41337227,0.0004334,97.3494,194.7575,8.377,351.7548,0,999,5872,0.001517,0.00063625,0,3891529,0 SPACEBEE-133,1 52183U 22033AC  23111.45557613  .00063625  00000-0  15170-2 0  9991,2 52183  97.3494 194.7575 0004334   8.3770 351.7548 15.41337227 58724,2022-033AC,52183,6820.299,93.425,445.12,439.208,1,
GENERATED VIA SPACETRACK.ORG API,18 SPCS,52183,SPACEBEE-133,PAYLOAD,U,22033AC,2023/4/21 15:36,179872,15.41361548,0.0004368,97.3493,194.9536,7.2819,352.849,0,999,5875,0.0014784,0.00062042,0,3891716,0 SPACEBEE-133,1 52183U 22033AC  23111.65033773  .00062042  00000-0  14784-2 0  9991,2 52183  97.3493 194.9536 0004368   7.2819 352.8490 15.41361548 58755,2022-033AC,52183,6820.227,93.424,445.071,439.113,1,
GENERATED VIA SPACETRACK.ORG API,18 SPCS,52183,SPACEBEE-133,PAYLOAD,U,22033AC,2023/4/21 15:36,172096,15.41363904,0.0004365,97.3493,194.9536,7.2482,352.8827,0,999,5875,0.0016049,0.00067409,0,3892071,0 SPACEBEE-133,1 52183U 22033AC  23111.65033764  .00067409  00000-0  16049-2 0  9999,2 52183  97.3493 194.9536 0004365   7.2482 352.8827 15.41363904 58750,2022-033AC,52183,6820.22,93.424,445.062,439.108,1,
GENERATED VIA SPACETRACK.ORG API,18 SPCS,52183,SPACEBEE-133,PAYLOAD,U,22033AC,2023/4/23 11:13,769408,15.41603263,0.0004359,97.3483,196.7833,358.7441,1.3795,0,999,5903,0.0015913,0.00067369,0,3892688,0 SPACEBEE-133,1 52183U 22033AC  23113.46794872  .00067369  00000-0  15913-2 0  9998,2 52183  97.3483 196.7833 0004359 358.7441   1.3795 15.41603263 59038,2022-033AC,52183,6819.514,93.409,444.352,438.406,1,
GENERATED VIA SPACETRACK.ORG API,18 SPCS,52183,SPACEBEE-133,PAYLOAD,U,22033AC,2023/4/23 15:54,265152,15.41628924,0.0004391,97.3481,196.9794,357.3713,2.7511,0,999,5906,0.0016079,0.00068138,0,3892831,0 SPACEBEE-133,1 52183U 22033AC  23113.66267668  .00068138  00000-0  16079-2 0  9997,2 52183  97.3481 196.9794 0004391 357.3713   2.7511 15.41628924 59062,2022-033AC,52183,6819.438,93.408,444.298,438.309,1,
GENERATED VIA SPACETRACK.ORG API,18 SPCS,52183,SPACEBEE-133,PAYLOAD,U,22033AC,2023/4/23 17:27,504704,15.41647924,0.0004389,97.348,197.0448,357.2352,2.8869,0,999,5906,0.0029586,0.00126477,0,3893330,0 SPACEBEE-133,1 52183U 22033AC  23113.72758686  .00126477  00000-0  29586-2 0  9997,2 52183  97.3480 197.0448 0004389 357.2352   2.8869 15.41647924 59062,2022-033AC,52183,6819.382,93.407,444.24,438.254,1,
GENERATED VIA SPACETRACK.ORG API,18 SPCS,52183,SPACEBEE-133,PAYLOAD,U,22033AC,2023/4/25 3:43,839584,15.41936397,0.0004258,97.3481,198.4826,351.0768,9.0403,0,999,5928,0.0014723,0.00062982,0,3893841,0 SPACEBEE-133,1 52183U 22033AC  23115.15541481  .00062982  00000-0  14723-2 0  9996,2 52183  97.3481 198.4826 0004258 351.0768   9.0403 15.41936397 59288,2022-033AC,52183,6818.532,93.389,443.3,437.493,1,
GENERATED VIA SPACETRACK.ORG API,18 SPCS,52183,SPACEBEE-133,PAYLOAD,U,22033AC,2023/4/25 6:50,766432,15.41954151,0.0004253,97.348,198.6136,350.6665,9.4502,0,999,5931,0.0014459,0.00061879,0,3894092,0 SPACEBEE-133,1 52183U 22033AC  23115.28520563  .00061879  00000-0  14459-2 0  9998,2 52183  97.3480 198.6136 0004253 350.6665   9.4502 15.41954151 59315,2022-033AC,52183,6818.479,93.388,443.244,437.445,1,
GENERATED VIA SPACETRACK.ORG API,18 SPCS,52183,SPACEBEE-133,PAYLOAD,U,22033AC,2023/4/26 3:05,556896,15.42026084,0.0004258,97.3477,199.4636,345.4537,14.6587,0,999,5943,0.001351,0.00057921,0,3894244,0 SPACEBEE-133,1 52183U 22033AC  23116.12882589  .00057921  00000-0  13510-2 0  9991,2 52183  97.3477 199.4636 0004258 345.4537  14.6587 15.42026084 59430,2022-033AC,52183,6818.267,93.384,443.036,437.229,1,
GENERATED VIA SPACETRACK.ORG API,18 SPCS,52183,SPACEBEE-133,PAYLOAD,U,22033AC,2023/4/26 4:38,203232,15.42032895,0.0004245,97.3477,199.5291,344.6376,15.4741,0,999,5945,0.0012264,0.00052546,0,3894260,0 SPACEBEE-133,1 52183U 22033AC  23116.19371763  .00052546  00000-0  12264-2 0  9998,2 52183  97.3477 199.5291 0004245 344.6376  15.4741 15.42032895 59456,2022-033AC,52183,6818.247,93.383,443.007,437.218,1,
GENERATED VIA SPACETRACK.ORG API,18 SPCS,52183,SPACEBEE-133,PAYLOAD,U,22033AC,2023/4/27 4:00,128288,15.42138826,0.0004211,97.3479,200.5096,340.652,19.4567,0,999,5959,0.0012619,0.00054273,0,3894489,0 SPACEBEE-133,1 52183U 22033AC  23117.16706167  .00054273  00000-0  12619-2 0  9999,2 52183  97.3479 200.5096 0004211 340.6520  19.4567 15.42138826 59590,2022-033AC,52183,6817.935,93.377,442.671,436.929,1,
GENERATED VIA SPACETRACK.ORG API,18 SPCS,52183,SPACEBEE-133,PAYLOAD,U,22033AC,2023/4/28 4:55,635616,15.42265326,0.0004322,97.3484,201.5564,335.2816,24.8224,0,999,5975,0.0012413,0.00053607,0,3895339,0 SPACEBEE-133,1 52183U 22033AC  23118.20521569  .00053607  00000-0  12413-2 0  9998,2 52183  97.3484 201.5564 0004322 335.2816  24.8224 15.42265326 59752,2022-033AC,52183,6817.562,93.369,442.374,436.481,1,
GENERATED VIA SPACETRACK.ORG API,18 SPCS,52183,SPACEBEE-133,PAYLOAD,U,22033AC,2023/4/28 12:42,269088,15.42301167,0.0004201,97.3481,201.8828,333.6339,26.4694,0,999,5981,0.0013322,0.00057636,0,3895770,0 SPACEBEE-133,1 52183U 22033AC  23118.52962117  .00057636  00000-0  13322-2 0  9997,2 52183  97.3481 201.8828 0004201 333.6339  26.4694 15.42301167 59813,2022-033AC,52183,6817.457,93.367,442.186,436.458,1,
GENERATED VIA SPACETRACK.ORG API,18 SPCS,52183,SPACEBEE-133,PAYLOAD,U,22033AC,2023/4/29 4:16,503040,15.42381696,0.0004266,97.3484,202.5365,330.0482,30.0521,0,999,5991,0.0012575,0.00054525,0,3896517,0 SPACEBEE-133,1 52183U 22033AC  23119.17840860  .00054525  00000-0  12575-2 0  9992,2 52183  97.3484 202.5365 0004266 330.0482  30.0521 15.42381696 59917,2022-033AC,52183,6817.219,93.362,441.993,436.176,1,
GENERATED VIA SPACETRACK.ORG API,18 SPCS,52183,SPACEBEE-133,PAYLOAD,U,22033AC,2023/4/29 18:17,773920,15.42455112,0.0004307,97.3483,203.1253,327.932,32.1665,0,999,5999,0.0014647,0.00063755,0,3896773,0 SPACEBEE-133,1 52183U 22033AC  23119.76228905  .00063755  00000-0  14647-2 0  9994,2 52183  97.3483 203.1253 0004307 327.9320  32.1665 15.42455112 59996,2022-033AC,52183,6817.003,93.358,441.804,435.932,1,
GENERATED VIA SPACETRACK.ORG API,18 SPCS,52183,SPACEBEE-133,PAYLOAD,U,22033AC,2023/4/30 11:25,268736,15.42538172,0.0004276,97.3485,203.8448,323.8606,36.2352,0,999,6011,0.0012345,0.00053801,0,3897442,0 SPACEBEE-133,1 52183U 22033AC  23120.47588274  .00053801  00000-0  12345-2 0  9996,2 52183  97.3485 203.8448 0004276 323.8606  36.2352 15.42538172 60110,2022-033AC,52183,6816.758,93.353,441.538,435.708,1,
GENERATED VIA SPACETRACK.ORG API,18 SPCS,52183,SPACEBEE-133,PAYLOAD,U,22033AC,2023/4/30 19:12,13696,15.42571967,0.0004326,97.3484,204.1717,321.694,38.4,0,999,6015,0.0011311,0.00049315,0,3897704,0 SPACEBEE-133,1 52183U 22033AC  23120.80023164  .00049315  00000-0  11311-2 0  9992,2 52183  97.3484 204.1717 0004326 321.6940  38.4000 15.42571967 60152,2022-033AC,52183,6816.659,93.351,441.473,435.575,1,
